<?xml version="1.0" encoding="UTF-8"?>
<ndm xmlns:xsi="http://www.w3.org/2001/XMLSchema-instance" xsi:noNamespaceSchemaLocation="https://sanaregistry.org/r/ndmxml_unqualified/ndmxml-2.0.0-master-2.0.xsd">
<omm id="CCSDS_OMM_VERS" version="2.0">
<header><CREATION_DATE/><ORIGINATOR/></header><body><segment><metadata><OBJECT_NAME>ONEWEB-0159</OBJECT_NAME><OBJECT_ID>2021-025W</OBJECT_ID><CENTER_NAME>EARTH</CENTER_NAME><REF_FRAME>TEME</REF_FRAME><TIME_SYSTEM>UTC</TIME_SYSTEM><MEAN_ELEMENT_THEORY>SGP4</MEAN_ELEMENT_THEORY></metadata><data><meanElements><EPOCH>2025-08-20T21:34:21.504864</EPOCH><MEAN_MOTION>13.13469564</MEAN_MOTION><ECCENTRICITY>.0001659</ECCENTRICITY><INCLINATION>87.8998</INCLINATION><RA_OF_ASC_NODE>19.8501</RA_OF_ASC_NODE><ARG_OF_PERICENTER>103.3290</ARG_OF_PERICENTER><MEAN_ANOMALY>256.8024</MEAN_ANOMALY></meanElements><tleParameters><EPHEMERIS_TYPE>0</EPHEMERIS_TYPE><CLASSIFICATION_TYPE>U</CLASSIFICATION_TYPE><NORAD_CAT_ID>48062</NORAD_CAT_ID><ELEMENT_SET_NO>999</ELEMENT_SET_NO><REV_AT_EPOCH>21418</REV_AT_EPOCH><BSTAR>-.13516E-2</BSTAR><MEAN_MOTION_DOT>-.481E-5</MEAN_MOTION_DOT><MEAN_MOTION_DDOT>0</MEAN_MOTION_DDOT></tleParameters></data></segment></body></omm>
<omm id="CCSDS_OMM_VERS" version="2.0">
<header><CREATION_DATE/><ORIGINATOR/></header><body><segment><metadata><OBJECT_NAME>ONEWEB-0164</OBJECT_NAME><OBJECT_ID>2021-025X</OBJECT_ID><CENTER_NAME>EARTH</CENTER_NAME><REF_FRAME>TEME</REF_FRAME><TIME_SYSTEM>UTC</TIME_SYSTEM><MEAN_ELEMENT_THEORY>SGP4</MEAN_ELEMENT_THEORY></metadata><data><meanElements><EPOCH>2025-08-20T21:07:32.837952</EPOCH><MEAN_MOTION>13.13470667</MEAN_MOTION><ECCENTRICITY>.0001774</ECCENTRICITY><INCLINATION>87.8996</INCLINATION><RA_OF_ASC_NODE>19.8633</RA_OF_ASC_NODE><ARG_OF_PERICENTER>94.4653</ARG_OF_PERICENTER><MEAN_ANOMALY>265.6679</MEAN_ANOMALY></meanElements><tleParameters><EPHEMERIS_TYPE>0</EPHEMERIS_TYPE><CLASSIFICATION_TYPE>U</CLASSIFICATION_TYPE><NORAD_CAT_ID>48063</NORAD_CAT_ID><ELEMENT_SET_NO>999</ELEMENT_SET_NO><REV_AT_EPOCH>21416</REV_AT_EPOCH><BSTAR>-.28166E-4</BSTAR><MEAN_MOTION_DOT>.2E-7</MEAN_MOTION_DOT><MEAN_MOTION_DDOT>0</MEAN_MOTION_DDOT></tleParameters></data></segment></body></omm>
<omm id="CCSDS_OMM_VERS" version="2.0">
<header><CREATION_DATE/><ORIGINATOR/></header><body><segment><metadata><OBJECT_NAME>ONEWEB-0167</OBJECT_NAME><OBJECT_ID>2021-025Y</OBJECT_ID><CENTER_NAME>EARTH</CENTER_NAME><REF_FRAME>TEME</REF_FRAME><TIME_SYSTEM>UTC</TIME_SYSTEM><MEAN_ELEMENT_THEORY>SGP4</MEAN_ELEMENT_THEORY></metadata><data><meanElements><EPOCH>2025-08-20T21:47:46.675968</EPOCH><MEAN_MOTION>13.13471699</MEAN_MOTION><ECCENTRICITY>.0001016</ECCENTRICITY><INCLINATION>87.9004</INCLINATION><RA_OF_ASC_NODE>19.8915</RA_OF_ASC_NODE><ARG_OF_PERICENTER>83.1740</ARG_OF_PERICENTER><MEAN_ANOMALY>276.9505</MEAN_ANOMALY></meanElements><tleParameters><EPHEMERIS_TYPE>0</EPHEMERIS_TYPE><CLASSIFICATION_TYPE>U</CLASSIFICATION_TYPE><NORAD_CAT_ID>48064</NORAD_CAT_ID><ELEMENT_SET_NO>999</ELEMENT_SET_NO><REV_AT_EPOCH>21415</REV_AT_EPOCH><BSTAR>-.65881E-3</BSTAR><MEAN_MOTION_DOT>-.228E-5</MEAN_MOTION_DOT><MEAN_MOTION_DDOT>0</MEAN_MOTION_DDOT></tleParameters></data></segment></body></omm>
<omm id="CCSDS_OMM_VERS" version="2.0">
<header><CREATION_DATE/><ORIGINATOR/></header><body><segment><metadata><OBJECT_NAME>ONEWEB-0166</OBJECT_NAME><OBJECT_ID>2021-025Z</OBJECT_ID><CENTER_NAME>EARTH</CENTER_NAME><REF_FRAME>TEME</REF_FRAME><TIME_SYSTEM>UTC</TIME_SYSTEM><MEAN_ELEMENT_THEORY>SGP4</MEAN_ELEMENT_THEORY></metadata><data><meanElements><EPOCH>2025-08-20T18:41:17.555424</EPOCH><MEAN_MOTION>13.13472072</MEAN_MOTION><ECCENTRICITY>.0001801</ECCENTRICITY><INCLINATION>87.8992</INCLINATION><RA_OF_ASC_NODE>19.8678</RA_OF_ASC_NODE><ARG_OF_PERICENTER>101.9622</ARG_OF_PERICENTER><MEAN_ANOMALY>258.1709</MEAN_ANOMALY></meanElements><tleParameters><EPHEMERIS_TYPE>0</EPHEMERIS_TYPE><CLASSIFICATION_TYPE>U</CLASSIFICATION_TYPE><NORAD_CAT_ID>48065</NORAD_CAT_ID><ELEMENT_SET_NO>999</ELEMENT_SET_NO><REV_AT_EPOCH>21421</REV_AT_EPOCH><BSTAR>.94111E-3</BSTAR><MEAN_MOTION_DOT>.356E-5</MEAN_MOTION_DOT><MEAN_MOTION_DDOT>0</MEAN_MOTION_DDOT></tleParameters></data></segment></body></omm>
<omm id="CCSDS_OMM_VERS" version="2.0">
<header><CREATION_DATE/><ORIGINATOR/></header><body><segment><metadata><OBJECT_NAME>ONEWEB-0151</OBJECT_NAME><OBJECT_ID>2021-025AA</OBJECT_ID><CENTER_NAME>EARTH</CENTER_NAME><REF_FRAME>TEME</REF_FRAME><TIME_SYSTEM>UTC</TIME_SYSTEM><MEAN_ELEMENT_THEORY>SGP4</MEAN_ELEMENT_THEORY></metadata><data><meanElements><EPOCH>2025-08-20T18:43:44.952096</EPOCH><MEAN_MOTION>13.13468421</MEAN_MOTION><ECCENTRICITY>.0001645</ECCENTRICITY><INCLINATION>87.8997</INCLINATION><RA_OF_ASC_NODE>19.8917</RA_OF_ASC_NODE><ARG_OF_PERICENTER>92.9244</ARG_OF_PERICENTER><MEAN_ANOMALY>267.2073</MEAN_ANOMALY></meanElements><tleParameters><EPHEMERIS_TYPE>0</EPHEMERIS_TYPE><CLASSIFICATION_TYPE>U</CLASSIFICATION_TYPE><NORAD_CAT_ID>48066</NORAD_CAT_ID><ELEMENT_SET_NO>999</ELEMENT_SET_NO><REV_AT_EPOCH>21415</REV_AT_EPOCH><BSTAR>.47919E-3</BSTAR><MEAN_MOTION_DOT>.188E-5</MEAN_MOTION_DOT><MEAN_MOTION_DDOT>0</MEAN_MOTION_DDOT></tleParameters></data></segment></body></omm>
<omm id="CCSDS_OMM_VERS" version="2.0">
<header><CREATION_DATE/><ORIGINATOR/></header><body><segment><metadata><OBJECT_NAME>ONEWEB-0170</OBJECT_NAME><OBJECT_ID>2021-025AB</OBJECT_ID><CENTER_NAME>EARTH</CENTER_NAME><REF_FRAME>TEME</REF_FRAME><TIME_SYSTEM>UTC</TIME_SYSTEM><MEAN_ELEMENT_THEORY>SGP4</MEAN_ELEMENT_THEORY></metadata><data><meanElements><EPOCH>2025-08-20T18:55:55.099488</EPOCH><MEAN_MOTION>13.13471246</MEAN_MOTION><ECCENTRICITY>.0001805</ECCENTRICITY><INCLINATION>87.8999</INCLINATION><RA_OF_ASC_NODE>19.8963</RA_OF_ASC_NODE><ARG_OF_PERICENTER>80.1345</ARG_OF_PERICENTER><MEAN_ANOMALY>279.9987</MEAN_ANOMALY></meanElements><tleParameters><EPHEMERIS_TYPE>0</EPHEMERIS_TYPE><CLASSIFICATION_TYPE>U</CLASSIFICATION_TYPE><NORAD_CAT_ID>48067</NORAD_CAT_ID><ELEMENT_SET_NO>999</ELEMENT_SET_NO><REV_AT_EPOCH>21411</REV_AT_EPOCH><BSTAR>.75487E-3</BSTAR><MEAN_MOTION_DOT>.288E-5</MEAN_MOTION_DOT><MEAN_MOTION_DDOT>0</MEAN_MOTION_DDOT></tleParameters></data></segment></body></omm>
<omm id="CCSDS_OMM_VERS" version="2.0">
<header><CREATION_DATE/><ORIGINATOR/></header><body><segment><metadata><OBJECT_NAME>ONEWEB-0168</OBJECT_NAME><OBJECT_ID>2021-025AC</OBJECT_ID><CENTER_NAME>EARTH</CENTER_NAME><REF_FRAME>TEME</REF_FRAME><TIME_SYSTEM>UTC</TIME_SYSTEM><MEAN_ELEMENT_THEORY>SGP4</MEAN_ELEMENT_THEORY></metadata><data><meanElements><EPOCH>2025-08-20T18:33:59.017536</EPOCH><MEAN_MOTION>13.13470217</MEAN_MOTION><ECCENTRICITY>.0001633</ECCENTRICITY><INCLINATION>87.8997</INCLINATION><RA_OF_ASC_NODE>19.8805</RA_OF_ASC_NODE><ARG_OF_PERICENTER>99.8847</ARG_OF_PERICENTER><MEAN_ANOMALY>260.2466</MEAN_ANOMALY></meanElements><tleParameters><EPHEMERIS_TYPE>0</EPHEMERIS_TYPE><CLASSIFICATION_TYPE>U</CLASSIFICATION_TYPE><NORAD_CAT_ID>48068</NORAD_CAT_ID><ELEMENT_SET_NO>999</ELEMENT_SET_NO><REV_AT_EPOCH>21412</REV_AT_EPOCH><BSTAR>.64804E-3</BSTAR><MEAN_MOTION_DOT>.249E-5</MEAN_MOTION_DOT><MEAN_MOTION_DDOT>0</MEAN_MOTION_DDOT></tleParameters></data></segment></body></omm>
<omm id="CCSDS_OMM_VERS" version="2.0">
<header><CREATION_DATE/><ORIGINATOR/></header><body><segment><metadata><OBJECT_NAME>ONEWEB-0173</OBJECT_NAME><OBJECT_ID>2021-025AD</OBJECT_ID><CENTER_NAME>EARTH</CENTER_NAME><REF_FRAME>TEME</REF_FRAME><TIME_SYSTEM>UTC</TIME_SYSTEM><MEAN_ELEMENT_THEORY>SGP4</MEAN_ELEMENT_THEORY></metadata><data><meanElements><EPOCH>2025-08-20T22:01:11.165376</EPOCH><MEAN_MOTION>13.13470290</MEAN_MOTION><ECCENTRICITY>.0001304</ECCENTRICITY><INCLINATION>87.8997</INCLINATION><RA_OF_ASC_NODE>19.8602</RA_OF_ASC_NODE><ARG_OF_PERICENTER>100.2735</ARG_OF_PERICENTER><MEAN_ANOMALY>259.8541</MEAN_ANOMALY></meanElements><tleParameters><EPHEMERIS_TYPE>0</EPHEMERIS_TYPE><CLASSIFICATION_TYPE>U</CLASSIFICATION_TYPE><NORAD_CAT_ID>48069</NORAD_CAT_ID><ELEMENT_SET_NO>999</ELEMENT_SET_NO><REV_AT_EPOCH>21438</REV_AT_EPOCH><BSTAR>-.45003E-3</BSTAR><MEAN_MOTION_DOT>-.152E-5</MEAN_MOTION_DOT><MEAN_MOTION_DDOT>0</MEAN_MOTION_DDOT></tleParameters></data></segment></body></omm>

</ndm>
